NORAD_CAT_ID,OBJECT_NAME,OBJECT_TYPE,EPOCH,MEAN_MOTION,ECCENTRICITY,INCLINATION,RA_OF_ASC_NODE,ARG_OF_PERICENTER,MEAN_ANOMALY,BSTAR,MEAN_MOTION_DOT,MEAN_MOTION_DDOT,TLE_LINE0,TLE_LINE1,TLE_LINE2,SEMIMAJOR_AXIS,PERIOD,APOGEE,PERIGEE,DECAYED
27216,PSLV DEB,DEBRIS,2021-07-14 07:10:03,15.04980956,0.0030133000000000004,98.2353,215.3745,239.5319,183.8244,6.9701e-05,9.25e-06,0.0,0 PSLV DEB,1 27216U 01049FL  21195.29864734  .00000925  00000-0  69701-4 0  9996,2 27216  98.2353 215.3745 0030133 239.5319 183.8244 15.04980956 61069,6929.701,95.682,572.447,530.685,0.0
27216,PSLV DEB,DEBRIS,2021-07-14 12:21:41,15.04981227,0.0030159,98.2353,215.6052,238.7632,276.4232,6.9491e-05,9.22e-06,0.0,0 PSLV DEB,1 27216U 01049FL  21195.51506846  .00000922  00000-0  69491-4 0  9991,2 27216  98.2353 215.6052 0030159 238.7632 276.4232 15.04981227 61091,6929.7,95.682,572.465,530.6659999999998,0.0
27216,PSLV DEB,DEBRIS,2021-07-15 00:34:29,15.04982835,0.0030196999999999997,98.2353,216.1478,237.0256,153.5525,8.0379e-05,1.078e-05,0.0,0 PSLV DEB,1 27216U 01049FL  21196.02395131  .00001078  00000-0  80379-4 0  9992,2 27216  98.2353 216.1478 0030197 237.0256 153.5525 15.04982835 61169,6929.695,95.682,572.486,530.635,0.0
27216,PSLV DEB,DEBRIS,2021-07-16 07:01:48,15.04986468,0.0030285999999999998,98.2354,217.5008,232.6476,188.8862,9.949299999999999e-05,1.352e-05,0.0,0 PSLV DEB,1 27216U 01049FL  21197.29292047  .00001352  00000-0  99493-4 0  9996,2 27216  98.2354 217.5008 0030286 232.6476 188.8862 15.04986468 61350,6929.684,95.682,572.536,530.562,0.0
27216,PSLV DEB,DEBRIS,2021-07-17 06:57:52,15.04989578,0.0030344,98.2355,218.5641,229.2227,192.1167,0.00011228,1.536e-05,0.0,0 PSLV DEB,1 27216U 01049FL  21198.29018668  .00001536  00000-0  11228-3 0  9995,2 27216  98.2355 218.5641 0030344 229.2227 192.1167 15.04989578 61515,6929.675,95.682,572.567,530.512,0.0
27216,PSLV DEB,DEBRIS,2021-07-18 00:22:40,15.04992014,0.0030388000000000004,98.2356,219.3378,226.7285,163.2445,0.00011936,1.637e-05,0.0,0 PSLV DEB,1 27216U 01049FL  21199.01574708  .00001637  00000-0  11936-3 0  9996,2 27216  98.2356 219.3378 0030388 226.7285 163.2445 15.04992014 61614,6929.6669999999995,95.682,572.59,530.474,0.0
27216,PSLV DEB,DEBRIS,2021-07-18 13:35:07,15.04993832,0.0030425,98.2356,219.9244,224.7754,264.9208,0.00012231,1.6800000000000002e-05,0.0,0 PSLV DEB,1 27216U 01049FL  21199.56605694  .00001680  00000-0  12231-3 0  9992,2 27216  98.2356 219.9244 0030425 224.7754 264.9208 15.04993832 61708,6929.6619999999975,95.681,572.61,530.443,0.0
27216,PSLV DEB,DEBRIS,2021-07-18 21:31:28,15.049950099999998,0.0030453000000000004,98.2358,220.2773,223.6193,257.2206,0.00012419,1.707e-05,0.0,0 PSLV DEB,1 27216U 01049FL  21199.89685365  .00001707  00000-0  12419-3 0  9999,2 27216  98.2358 220.2773 0030453 223.6193 257.2206 15.04995010 61756,6929.658,95.681,572.626,530.42,0.0
27216,PSLV DEB,DEBRIS,2021-07-19 00:27:02,15.04995458,0.003045,98.2358,220.4074,223.2167,197.8258,0.00012451,1.711e-05,0.0,0 PSLV DEB,1 27216U 01049FL  21200.01878281  .00001711  00000-0  12451-3 0  9998,2 27216  98.2358 220.4074 0030450 223.2167 197.8258 15.04995458 61769,6929.656999999997,95.681,572.622,530.4209999999998,0.0
27216,PSLV DEB,DEBRIS,2021-07-20 00:15:01,15.04999054,0.0030484,98.236,221.4648,219.7844,170.6691,0.00012694,1.746e-05,0.0,0 PSLV DEB,1 27216U 01049FL  21201.01042861  .00001746  00000-0  12694-3 0  9993,2 27216  98.2360 221.4648 0030484 219.7844 170.6691 15.04999054 61923,6929.646,95.681,572.635,530.386,0.0
27216,PSLV DEB,DEBRIS,2021-07-20 20:02:21,15.05002862,0.0030526,98.2361,222.3439,216.8692,318.2106,0.00013412,1.85e-05,0.0,0 PSLV DEB,1 27216U 01049FL  21201.83497213  .00001850  00000-0  13412-3 0  9993,2 27216  98.2361 222.3439 0030526 216.8692 318.2106 15.05002862 62046,6929.634,95.681,572.6519999999998,530.345,0.0
27216,PSLV DEB,DEBRIS,2021-07-21 00:18:32,15.05003569,0.0030544,98.2361,222.5337,216.2673,202.0785,0.00013351,1.841e-05,0.0,0 PSLV DEB,1 27216U 01049FL  21202.01287138  .00001841  00000-0  13351-3 0  9999,2 27216  98.2361 222.5337 0030544 216.2673 202.0785 15.05003569 62068,6929.632,95.681,572.663,530.331,0.0
27216,PSLV DEB,DEBRIS,2021-07-21 21:19:49,15.05008255,0.003059,98.2363,223.4678,213.1926,267.8391,0.00014468,2.002e-05,0.0,0 PSLV DEB,1 27216U 01049FL  21202.88876481  .00002002  00000-0  14468-3 0  9999,2 27216  98.2363 223.4678 0030590 213.1926 267.8391 15.05008255 62201,6929.6169999999975,95.681,572.68,530.285,0.0
27216,PSLV DEB,DEBRIS,2021-07-22 00:07:15,15.05008738,0.0030601999999999995,98.2363,223.5918,212.7904,177.8671,0.00014409,1.993e-05,0.0,0 PSLV DEB,1 27216U 01049FL  21203.00504583  .00001993  00000-0  14409-3 0  9998,2 27216  98.2363 223.5918 0030602 212.7904 177.8671 15.05008738 62223,6929.616,95.681,572.687,530.275,0.0
27216,PSLV DEB,DEBRIS,2021-07-23 13:21:29,15.05018129,0.0030697,98.2365,225.2464,207.3808,304.4278,0.00017350000000000002,2.416e-05,0.0,0 PSLV DEB,1 27216U 01049FL  21204.55658914  .00002416  00000-0  17350-3 0  9996,2 27216  98.2365 225.2464 0030697 207.3808 304.4278 15.05018129 62458,6929.5869999999995,95.68,572.724,530.18,0.0
27216,PSLV DEB,DEBRIS,2021-07-24 13:17:34,15.05021704,0.0030784000000000002,98.2366,226.3099,203.8616,307.9854,0.00015908,2.209e-05,0.0,0 PSLV DEB,1 27216U 01049FL  21205.55387642  .00002209  00000-0  15908-3 0  9991,2 27216  98.2366 226.3099 0030784 203.8616 307.9854 15.05021704 62608,6929.576,95.68,572.773,530.109,0.0
27216,PSLV DEB,DEBRIS,2021-07-24 23:55:32,15.05023748,0.0030835,98.2365,226.7822,202.3193,188.4115,0.00015819,2.197e-05,0.0,0 PSLV DEB,1 27216U 01049FL  21205.99690487  .00002197  00000-0  15819-3 0  9990,2 27216  98.2365 226.7822 0030835 202.3193 188.4115 15.05023748 62664,6929.57,95.68,572.802,530.067,0.0
27216,PSLV DEB,DEBRIS,2021-07-25 13:13:33,15.05025649,0.0030851,98.2366,227.3733,200.388,311.0616,0.00015108,2.095e-05,0.0,0 PSLV DEB,1 27216U 01049FL  21206.55108067  .00002095  00000-0  15108-3 0  9999,2 27216  98.2366 227.3733 0030851 200.3880 311.0616 15.05025649 62754,6929.564,95.679,572.807,530.0509999999998,0.0
27216,PSLV DEB,DEBRIS,2021-07-25 19:42:46,15.05026734,0.0030870999999999997,98.2366,227.6615,199.4614,335.5347,0.00014926,2.069e-05,0.0,0 PSLV DEB,1 27216U 01049FL  21206.82136939  .00002069  00000-0  14926-3 0  9996,2 27216  98.2366 227.6615 0030871 199.4614 335.5347 15.05026734 62793,6929.561,95.679,572.818,530.033,0.0
27216,PSLV DEB,DEBRIS,2021-07-26 13:09:36,15.05029092,0.0030932,98.2366,228.4368,196.9472,314.4005,0.00013703,1.893e-05,0.0,0 PSLV DEB,1 27216U 01049FL  21207.54833660  .00001893  00000-0  13703-3 0  9997,2 27216  98.2366 228.4368 0030932 196.9472 314.4005 15.05029092 62909,6929.553000000001,95.679,572.8530000000002,529.984,0.0
27216,PSLV DEB,DEBRIS,2021-07-27 13:05:41,15.05032135,0.0030994,98.2365,229.5005,193.55,317.8228,0.0001226,1.687e-05,0.0,0 PSLV DEB,1 27216U 01049FL  21208.54561392  .00001687  00000-0  12260-3 0  9996,2 27216  98.2365 229.5005 0030994 193.5500 317.8228 15.05032135 63054,6929.544,95.679,572.886,529.932,0.0
27216,PSLV DEB,DEBRIS,2021-07-27 20:57:02,15.0503343,0.0031022,98.2364,229.8496,192.4274,291.3478,0.00012204,1.679e-05,0.0,0 PSLV DEB,1 27216U 01049FL  21208.87294073  .00001679  00000-0  12204-3 0  9990,2 27216  98.2364 229.8496 0031022 192.4274 291.3478 15.05033430 63107,6929.54,95.679,572.9019999999998,529.908,0.0
27216,PSLV DEB,DEBRIS,2021-07-28 13:01:46,15.05035498,0.0031075,98.2364,230.5642,190.1768,321.3058,0.00011345,1.555e-05,0.0,0 PSLV DEB,1 27216U 01049FL  21209.54290411  .00001555  00000-0  11345-3 0  9995,2 27216  98.2364 230.5642 0031075 190.1768 321.3058 15.05035498 63205,6929.534000000002,95.679,572.932,529.865,0.0
27216,PSLV DEB,DEBRIS,2021-07-28 14:31:54,15.05035684,0.0031083,98.2364,230.6309,189.96599999999998,300.4404,0.00011279999999999999,1.546e-05,0.0,0 PSLV DEB,1 27216U 01049FL  21209.60549637  .00001546  00000-0  11280-3 0  9997,2 27216  98.2364 230.6309 0031083 189.9660 300.4404 15.05035684 63213,6929.533,95.679,572.937,529.859,0.0
27216,PSLV DEB,DEBRIS,2021-07-29 01:24:52,15.05037064,0.0031128,98.2362,231.1144,188.4256,237.2601,0.00010859,1.486e-05,0.0,0 PSLV DEB,1 27216U 01049FL  21210.05893574  .00001486  00000-0  10859-3 0  9994,2 27216  98.2362 231.1144 0031128 188.4256 237.2601 15.05037064 63286,6929.529,95.679,572.964,529.8240000000002,0.0
27216,PSLV DEB,DEBRIS,2021-07-29 13:00:06,15.05038731,0.0031168000000000003,98.2362,231.6293,186.7847,333.1742,0.00010772,1.473e-05,0.0,0 PSLV DEB,1 27216U 01049FL  21210.54173759  .00001473  00000-0  10772-3 0  9994,2 27216  98.2362 231.6293 0031168 186.7847 333.1742 15.05038731 63359,6929.524,95.679,572.987,529.7909999999998,0.0
27216,PSLV DEB,DEBRIS,2021-07-30 12:54:02,15.05041836,0.0031261999999999996,98.236,232.6912,183.4628,328.4964,0.00010349,1.413e-05,0.0,0 PSLV DEB,1 27216U 01049FL  21211.53752625  .00001413  00000-0  10349-3 0  9993,2 27216  98.2360 232.6912 0031262 183.4628 328.4964 15.05041836 63502,6929.514,95.678,573.0419999999998,529.716,0.0
27216,PSLV DEB,DEBRIS,2021-07-31 12:50:18,15.05044064,0.0031348,98.2359,233.7547,180.1671,332.5963,9.221e-05,1.251e-05,0.0,0 PSLV DEB,1 27216U 01049FL  21212.53493938  .00001251  00000-0  92210-4 0  9991,2 27216  98.2359 233.7547 0031348 180.1671 332.5963 15.05044064 63650,6929.507,95.678,573.095,529.65,0.0
27216,PSLV DEB,DEBRIS,2021-07-31 20:42:08,15.05044455,0.003137,98.2358,234.1041,179.0829,307.8792,8.5877e-05,1.1599999999999999e-05,0.0,0 PSLV DEB,1 27216U 01049FL  21212.86259581  .00001160  00000-0  85877-4 0  9991,2 27216  98.2358 234.1041 0031370 179.0829 307.8792 15.05044455 63705,6929.5059999999985,95.678,573.109,529.633,0.0
27216,PSLV DEB,DEBRIS,2021-08-01 12:46:20,15.05045508,0.0031441999999999998,98.2357,234.8181,176.8926,335.7775,7.6109e-05,1.0199999999999999e-05,0.0,0 PSLV DEB,1 27216U 01049FL  21213.53218574  .00001020  00000-0  76109-4 0  9996,2 27216  98.2357 234.8181 0031442 176.8926 335.7775 15.05045508 63801,6929.503000000002,95.678,573.156,529.58,0.0
